CSS (TIANHE)            
1 48274U 21035A   24006.39433680  .00034580  00000+0  34416-3 0  9994
2 48274  41.4719 357.5979 0007588 160.5191 199.5941 15.64954404153615
